{
  "type": "FeatureCollection",
  "features": [
    {
      "type": "Feature",
      "properties": {
        "norad_id": 44794,
        "name": "BEIDOU-3 M21 (C43)",
        "group": "beidou",
        "lat": -5.880714105379192,
        "lon": -58.34624209840916,
        "alt_km": 21518.104439550505,
        "timestamp": "2025-12-24T03:53:29.912787+00:00",
        "meta_object_name": "BEIDOU-3 M21 (C43)",
        "meta_object_id": "2019-078B",
        "meta_epoch": "2025-12-22T00:36:11.320992",
        "meta_mean_motion": 1.86227906,
        "meta_eccentricity": 0.00042988,
        "meta_inclination": 54.0732,
        "meta_ra_of_asc_node": 306.0255,
        "meta_arg_of_pericenter": 12.7951,
        "meta_mean_anomaly": 347.2162,
        "meta_ephemeris_type": 0,
        "meta_classification_type": "U",
        "meta_norad_cat_id": 44794,
        "meta_element_set_no": 999,
        "meta_rev_at_epoch": 4135,
        "meta_bstar": 0,
        "meta_mean_motion_dot": -5.8e-07,
        "meta_mean_motion_ddot": 0,
        "tle_line1": "1 44794U 19078B   25356.02513103 -.00000058  00000+0  00000+0 0  9991",
        "tle_line2": "2 44794  54.0732 306.0255 0004298  12.7951 347.2162  1.86227906 41359"
      },
      "geometry": {
        "type": "Point",
        "coordinates": [
          -58.34624209840916,
          -5.880714105379192
        ]
      }
    },
    {
      "type": "Feature",
      "properties": {
        "norad_id": 44864,
        "name": "BEIDOU-3 M19 (C41)",
        "group": "beidou",
        "lat": -6.9946654528017325,
        "lon": -106.72614921471305,
        "alt_km": 21535.104556191403,
        "timestamp": "2025-12-24T03:53:29.912798+00:00",
        "meta_object_name": "BEIDOU-3 M19 (C41)",
        "meta_object_id": "2019-090A",
        "meta_epoch": "2025-12-23T08:14:02.545728",
        "meta_mean_motion": 1.86231621,
        "meta_eccentricity": 0.00183506,
        "meta_inclination": 56.4016,
        "meta_ra_of_asc_node": 68.6102,
        "meta_arg_of_pericenter": 285.1686,
        "meta_mean_anomaly": 74.3057,
        "meta_ephemeris_type": 0,
        "meta_classification_type": "U",
        "meta_norad_cat_id": 44864,
        "meta_element_set_no": 999,
        "meta_rev_at_epoch": 4095,
        "meta_bstar": 0,
        "meta_mean_motion_dot": -2.5e-07,
        "meta_mean_motion_ddot": 0,
        "tle_line1": "1 44864U 19090A   25357.34308502 -.00000025  00000+0  00000+0 0  9998",
        "tle_line2": "2 44864  56.4016  68.6102 0018350 285.1686  74.3057  1.86231621 40950"
      },
      "geometry": {
        "type": "Point",
        "coordinates": [
          -106.72614921471305,
          -6.9946654528017325
        ]
      }
    },
    {
      "type": "Feature",
      "properties": {
        "norad_id": 44865,
        "name": "BEIDOU-3 M20 (C42)",
        "group": "beidou",
        "lat": -55.56151466160576,
        "lon": -6.865651263713751,
        "alt_km": 21493.110475063,
        "timestamp": "2025-12-24T03:53:29.912810+00:00",
        "meta_object_name": "BEIDOU-3 M20 (C42)",
        "meta_object_id": "2019-090B",
        "meta_epoch": "2025-12-23T05:19:57.002592",
        "meta_mean_motion": 1.86231582,
        "meta_eccentricity": 0.00155076,
        "meta_inclination": 56.4032,
        "meta_ra_of_asc_node": 68.6485,
        "meta_arg_of_pericenter": 297.2888,
        "meta_mean_anomaly": 70.7426,
        "meta_ephemeris_type": 0,
        "meta_classification_type": "U",
        "meta_norad_cat_id": 44865,
        "meta_element_set_no": 999,
        "meta_rev_at_epoch": 4094,
        "meta_bstar": 0,
        "meta_mean_motion_dot": -2.6e-07,
        "meta_mean_motion_ddot": 0,
        "tle_line1": "1 44865U 19090B   25357.22218753 -.00000026  00000+0  00000+0 0  9995",
        "tle_line2": "2 44865  56.4032  68.6485 0015507 297.2888  70.7426  1.86231582 40947"
      },
      "geometry": {
        "type": "Point",
        "coordinates": [
          -6.865651263713751,
          -55.56151466160576
        ]
      }
    },
    {
      "type": "Feature",
      "properties": {
        "norad_id": 45344,
        "name": "BEIDOU-3 G2 (C60)",
        "group": "beidou",
        "lat": -0.32562286849357963,
        "lon": -128.6743192128573,
        "alt_km": 35779.90567975623,
        "timestamp": "2025-12-24T03:53:29.912821+00:00",
        "meta_object_name": "BEIDOU-3 G2 (C60)",
        "meta_object_id": "2020-017A",
        "meta_epoch": "2025-12-23T23:47:05.724672",
        "meta_mean_motion": 1.00272217,
        "meta_eccentricity": 0.000222,
        "meta_inclination": 2.5166,
        "meta_ra_of_asc_node": 44.183,
        "meta_arg_of_pericenter": 236.7044,
        "meta_mean_anomaly": 248.6997,
        "meta_ephemeris_type": 0,
        "meta_classification_type": "U",
        "meta_norad_cat_id": 45344,
        "meta_element_set_no": 999,
        "meta_rev_at_epoch": 2150,
        "meta_bstar": 0,
        "meta_mean_motion_dot": -1.2e-06,
        "meta_mean_motion_ddot": 0,
        "tle_line1": "1 45344U 20017A   25357.99103848 -.00000120  00000+0  00000+0 0  9996",
        "tle_line2": "2 45344   2.5166  44.1830 0002220 236.7044 248.6997  1.00272217 21509"
      },
      "geometry": {
        "type": "Point",
        "coordinates": [
          -128.6743192128573,
          -0.32562286849357963
        ]
      }
    },
    {
      "type": "Feature",
      "properties": {
        "norad_id": 45807,
        "name": "BEIDOU-3 G3 (C61)",
        "group": "beidou",
        "lat": -0.546534422783606,
        "lon": -98.2206738143799,
        "alt_km": 35798.42634411228,
        "timestamp": "2025-12-24T03:53:29.912833+00:00",
        "meta_object_name": "BEIDOU-3 G3 (C61)",
        "meta_object_id": "2020-040A",
        "meta_epoch": "2025-12-23T06:48:37.677024",
        "meta_mean_motion": 1.00268803,
        "meta_eccentricity": 0.00065635,
        "meta_inclination": 2.0151,
        "meta_ra_of_asc_node": 66.6726,
        "meta_arg_of_pericenter": 309.252,
        "meta_mean_anomaly": 288.8631,
        "meta_ephemeris_type": 0,
        "meta_classification_type": "U",
        "meta_norad_cat_id": 45807,
        "meta_element_set_no": 999,
        "meta_rev_at_epoch": 2030,
        "meta_bstar": 0,
        "meta_mean_motion_dot": -3.33e-06,
        "meta_mean_motion_ddot": 0,
        "tle_line1": "1 45807U 20040A   25357.28376941 -.00000333  00000+0  00000+0 0  9990",
        "tle_line2": "2 45807   2.0151  66.6726 0006563 309.2520 288.8631  1.00268803 20308"
      },
      "geometry": {
        "type": "Point",
        "coordinates": [
          -98.2206738143799,
          -0.546534422783606
        ]
      }
    },
    {
      "type": "Feature",
      "properties": {
        "norad_id": 56564,
        "name": "BEIDOU-3 G4 (C62)",
        "group": "beidou",
        "lat": 0.09779213289121799,
        "lon": -48.617856754370145,
        "alt_km": 35794.770360830764,
        "timestamp": "2025-12-24T03:53:29.912846+00:00",
        "meta_object_name": "BEIDOU-3 G4 (C62)",
        "meta_object_id": "2023-066A",
        "meta_epoch": "2025-12-23T21:45:08.270208",
        "meta_mean_motion": 1.00271063,
        "meta_eccentricity": 0.0002618,
        "meta_inclination": 0.7917,
        "meta_ra_of_asc_node": 302.9038,
        "meta_arg_of_pericenter": 228.0019,
        "meta_mean_anomaly": 48.125,
        "meta_ephemeris_type": 0,
        "meta_classification_type": "U",
        "meta_norad_cat_id": 56564,
        "meta_element_set_no": 999,
        "meta_rev_at_epoch": 963,
        "meta_bstar": 0,
        "meta_mean_motion_dot": -9e-07,
        "meta_mean_motion_ddot": 0,
        "tle_line1": "1 56564U 23066A   25357.90634572 -.00000090  00000+0  00000+0 0  9999",
        "tle_line2": "2 56564   0.7917 302.9038 0002618 228.0019  48.1250  1.00271063  9634"
      },
      "geometry": {
        "type": "Point",
        "coordinates": [
          -48.617856754370145,
          0.09779213289121799
        ]
      }
    },
    {
      "type": "Feature",
      "properties": {
        "norad_id": 58654,
        "name": "BEIDOU-3 M28 (C50)",
        "group": "beidou",
        "lat": -45.419869169387184,
        "lon": 24.243137018120702,
        "alt_km": 21526.292221918073,
        "timestamp": "2025-12-24T03:53:29.912857+00:00",
        "meta_object_name": "BEIDOU-3 M28 (C50)",
        "meta_object_id": "2023-207A",
        "meta_epoch": "2025-12-23T04:15:12.326400",
        "meta_mean_motion": 1.86229739,
        "meta_eccentricity": 0.00028337,
        "meta_inclination": 55.5933,
        "meta_ra_of_asc_node": 68.248,
        "meta_arg_of_pericenter": 274.486,
        "meta_mean_anomaly": 85.5342,
        "meta_ephemeris_type": 0,
        "meta_classification_type": "U",
        "meta_norad_cat_id": 58654,
        "meta_element_set_no": 999,
        "meta_rev_at_epoch": 1356,
        "meta_bstar": 0,
        "meta_mean_motion_dot": -2.8e-07,
        "meta_mean_motion_ddot": 0,
        "tle_line1": "1 58654U 23207A   25357.17722600 -.00000028  00000+0  00000+0 0  9998",
        "tle_line2": "2 58654  55.5933  68.2480 0002833 274.4860  85.5342  1.86229739 13564"
      },
      "geometry": {
        "type": "Point",
        "coordinates": [
          24.243137018120702,
          -45.419869169387184
        ]
      }
    }
  ]
}